[{"OBJECT_NAME":"OBJECT E","OBJECT_ID":"2024-174E","EPOCH":"2026-03-09T23:40:24.424320","MEAN_MOTION":15.26241811,"ECCENTRICITY":0.00122518,"INCLINATION":97.4515,"RA_OF_ASC_NODE":80.1669,"ARG_OF_PERICENTER":217.7524,"MEAN_ANOMALY":142.2856,"EPHEMERIS_TYPE":0,"CLASSIFICATION_TYPE":"U","NORAD_CAT_ID":61242,"ELEMENT_SET_NO":999,"REV_AT_EPOCH":8070,"BSTAR":0.00031155901,"MEAN_MOTION_DOT":8.013e-5,"MEAN_MOTION_DDOT":0},{"OBJECT_NAME":"STARLINK-32659","OBJECT_ID":"2024-249U","EPOCH":"2026-03-09T23:22:57.363456","MEAN_MOTION":15.27603893,"ECCENTRICITY":0.00013021,"INCLINATION":42.9991,"RA_OF_ASC_NODE":312.7722,"ARG_OF_PERICENTER":256.0996,"MEAN_ANOMALY":103.9711,"EPHEMERIS_TYPE":0,"CLASSIFICATION_TYPE":"U","NORAD_CAT_ID":62427,"ELEMENT_SET_NO":999,"REV_AT_EPOCH":6785,"BSTAR":0.0014840477,"MEAN_MOTION_DOT":0.00040832,"MEAN_MOTION_DDOT":0}]
